IRIDIUM 63              
1 25286U 98021B   25250.16268650  .00000644  00000+0  21250-3 0  9997
2 25286  86.3957  47.7139 0002171  85.6451 274.4994 14.36604428435610
IRIDIUM 69              
1 25319U 98026A   25250.20131922  .00000633  00000+0  19058-3 0  9996
2 25319  86.3930  60.7359 0004426 102.2986 257.8709 14.41038400434874
IRIDIUM 71              
1 25320U 98026B   25249.91989231  .00000729  00000+0  21966-3 0  9995
2 25320  86.3936  55.5326 0003117 132.4953 227.6511 14.41219994435363
IRIDIUM 73              
1 25344U 98032C   25250.29123105  .00000939  00000+0  22847-3 0  9993
2 25344  86.4460  11.9387 0002862  88.2796 271.8738 14.51806484442473
IRIDIUM 82              
1 25467U 98051A   25250.22455420  .00033456  00000+0  85524-3 0  9992
2 25467  86.3598  69.2637 0077687 345.6753  14.2294 15.36172107436532
